GLOBALSTAR M057 [-]     
1 25943U 99058A   23351.60603154 -.00000073  00000+0  18020-3 0  9997
2 25943  51.9981 102.1620 0001691 333.9202  26.1562 12.24780542 99835
GLOBALSTAR M059 [-]     
1 25944U 99058B   23351.91323369 -.00000030  00000+0  69860-3 0  9990
2 25944  52.0012 247.6949 0001162  42.9621  38.4807 11.99958426508345
GLOBALSTAR M056 [-]     
1 25945U 99058C   23351.94109807 -.00000095  00000+0 -83466-4 0  9994
2 25945  51.9966 263.6379 0000906 113.2490 326.9198 12.04774562 96667
GLOBALSTAR M031 [-]     
1 25946U 99058D   23351.73321104 -.00000126  00000+0 -36209-3 0  9995
2 25946  51.9928 189.2826 0002394 120.7805 320.7438 12.15998965 97940
GLOBALSTAR M039 [-]     
1 25961U 99062A   23351.70262627 -.00000075  00000+0  15964-3 0  9995
2 25961  51.9825 136.1737 0002663 190.8266 169.2544 12.62277144111079
GLOBALSTAR M029 [-]     
1 25963U 99062C   23351.72294571 -.00000065  00000+0  26323-3 0  9992
2 25963  51.9781 136.7105 0003778 118.5858 344.2395 11.99871984103407
GLOBALSTAR M061 [-]     
1 25964U 99062D   23351.68208208 -.00000095  00000+0 -24315-3 0  9993
2 25964  51.9757 171.3307 0006428  27.8026  50.6471 11.76755630 56723
